NORAD_CAT_ID,OBJECT_NAME,OBJECT_TYPE,EPOCH,MEAN_MOTION,ECCENTRICITY,INCLINATION,RA_OF_ASC_NODE,ARG_OF_PERICENTER,MEAN_ANOMALY,BSTAR,MEAN_MOTION_DOT,MEAN_MOTION_DDOT,TLE_LINE0,TLE_LINE1,TLE_LINE2,SEMIMAJOR_AXIS,PERIOD,APOGEE,PERIGEE,DECAYED
52344.0,STARLINK-3851,PAYLOAD,2023-04-15 20:48:41,15.08850433,0.0001062,53.2155,272.4252,89.1126,270.9988,0.00040566,6.176e-05,0.0,0 STARLINK-3851,1 52344U 22045P   23105.86714634  .00006176  00000-0  40566-3 0  9995,2 52344  53.2155 272.4252 0001062  89.1126 270.9988 15.08850433 55933,6917.848,95.437,540.448,538.979,0.0
52344.0,STARLINK-3851,PAYLOAD,2023-04-16 12:42:32,15.0884307,9.35e-05,53.2147,269.4521,86.7492,273.3607,0.00037225,5.642e-05,0.0,0 STARLINK-3851,1 52344U 22045P   23106.52954859  .00005642  00000-0  37225-3 0  9999,2 52344  53.2147 269.4521 0000935  86.7492 273.3607 15.08843070 56032,6917.871,95.437,540.383,539.089,0.0
52344.0,STARLINK-3851,PAYLOAD,2023-04-16 20:39:28,15.08856922,0.0001082,53.2155,267.9658,85.6973,274.4143,0.0011094,0.0001742,0.0,0 STARLINK-3851,1 52344U 22045P   23106.86074681  .00017420  00000-0  11094-2 0  9994,2 52344  53.2155 267.9658 0001082  85.6973 274.4143 15.08856922 56083,6917.829,95.436,540.442,538.945,0.0
52344.0,STARLINK-3851,PAYLOAD,2023-04-17 12:33:20,15.0883832,0.0001149,53.2159,264.9916,94.4944,265.618,0.00023048,3.382e-05,0.0,0 STARLINK-3851,1 52344U 22045P   23107.52314941  .00003382  00000-0  23048-3 0  9999,2 52344  53.2159 264.9916 0001149  94.4944 265.6180 15.08838320 56187,6917.886,95.438,540.545,538.956,0.0
52344.0,STARLINK-3851,PAYLOAD,2023-04-17 14:08:43,15.08840028,0.0001142,53.216,264.6946,85.9481,274.1642,0.00011058,1.472e-05,0.0,0 STARLINK-3851,1 52344U 22045P   23107.58938963  .00001472  00000-0  11058-3 0  9997,2 52344  53.2160 264.6946 0001142  85.9481 274.1642 15.08840028 56190,6917.88,95.438,540.535,538.955,0.0
52344.0,STARLINK-3851,PAYLOAD,2023-04-17 20:30:15,15.0884895,0.0001283,53.2162,263.5058,89.8871,270.2268,0.00021112,3.074e-05,0.0,0 STARLINK-3851,1 52344U 22045P   23107.85434591  .00003074  00000-0  21112-3 0  9997,2 52344  53.2162 263.5058 0001283  89.8871 270.2268 15.08848950 56234,6917.853,95.437,540.606,538.83,0.0
52344.0,STARLINK-3851,PAYLOAD,2023-04-18 09:13:21,15.08833067,0.000113,53.2161,261.1262,93.3936,266.7186,2.2593e-05,7.2e-07,0.0,0 STARLINK-3851,1 52344U 22045P   23108.38427395  .00000072  00000-0  22593-4 0  9990,2 52344  53.2161 261.1262 0001130  93.3936 266.7186 15.08833067 56318,6917.902,95.438,540.548,538.985,0.0
52344.0,STARLINK-3851,PAYLOAD,2023-04-18 17:10:16,15.0884279,0.0001134,53.2165,259.6402,95.5823,264.5299,0.00011973,1.618e-05,0.0,0 STARLINK-3851,1 52344U 22045P   23108.71546927  .00001618  00000-0  11973-3 0  9996,2 52344  53.2165 259.6402 0001134  95.5823 264.5299 15.08842790 56362,6917.872,95.437,540.521,538.952,0.0
52344.0,STARLINK-3851,PAYLOAD,2023-04-19 10:39:31,15.08837626,9.86e-05,53.2158,256.3682,73.5504,286.5596,0.00014894,2.083e-05,0.0,0 STARLINK-3851,1 52344U 22045P   23109.44411227  .00002083  00000-0  14894-3 0  9993,2 52344  53.2158 256.3682 0000986  73.5504 286.5596 15.08837626 56472,6917.888,95.438,540.435,539.071,0.0
52344.0,STARLINK-3851,PAYLOAD,2023-04-19 17:01:03,15.0884663,0.0001163,53.2159,255.1793,84.5963,275.5162,0.00039095,5.941e-05,0.0,0 STARLINK-3851,1 52344U 22045P   23109.70907080  .00005941  00000-0  39095-3 0  9995,2 52344  53.2159 255.1793 0001163  84.5963 275.5162 15.08846630 56519,6917.86,95.437,540.53,538.921,0.0
52344.0,STARLINK-3851,PAYLOAD,2023-04-20 02:33:22,15.0884431,0.0001154,53.2157,253.3961,86.8242,273.2882,0.00025989,3.851e-05,0.0,0 STARLINK-3851,1 52344U 22045P   23110.10651178  .00003851  00000-0  25989-3 0  9990,2 52344  53.2157 253.3961 0001154  86.8242 273.2882 15.08844310 56572,6917.867,95.437,540.531,538.934,0.0
52344.0,STARLINK-3851,PAYLOAD,2023-04-20 15:16:28,15.08832931,0.0001399,53.2167,251.0171,85.2229,274.8923,1.5296e-05,-4.5e-07,0.0,0 STARLINK-3851,1 52344U 22045P   23110.63643723 -.00000045  00000-0  15296-4 0  9999,2 52344  53.2167 251.0171 0001399  85.2229 274.8923 15.08832931 56658,6917.902,95.438,540.735,538.799,0.0
52344.0,STARLINK-3851,PAYLOAD,2023-04-21 02:24:09,15.08831316,4.29e-05,53.2157,248.933,115.4123,244.6914,-6.1286e-05,-1.262e-05,0.0,0 STARLINK-3851,1 52344U 22045P   23111.10011503 -.00001262  00000-0 -61286-4 0  9990,2 52344  53.2157 248.9330 0000429 115.4123 244.6914 15.08831316 56720,6917.907,95.438,540.069,539.475,0.0
52344.0,STARLINK-3851,PAYLOAD,2023-04-21 15:07:15,15.08851785,0.0001959,53.2157,246.5567,82.0244,278.097,0.00044435,6.793e-05,0.0,0 STARLINK-3851,1 52344U 22045P   23111.63003513  .00006793  00000-0  44435-3 0  9998,2 52344  53.2157 246.5567 0001959  82.0244 278.0970 15.08851785 56802,6917.844,95.437,541.065,538.354,0.0
52344.0,STARLINK-3851,PAYLOAD,2023-04-22 02:14:57,15.08831427,1.12e-05,53.2155,244.474,62.5229,297.5774,-6.6894e-05,-1.351e-05,0.0,0 STARLINK-3851,1 52344U 22045P   23112.09371587 -.00001351  00000-0 -66894-4 0  9999,2 52344  53.2155 244.4740 0000112  62.5229 297.5774 15.08831427 56872,6917.907,95.438,539.849,539.694,0.0
52344.0,STARLINK-3851,PAYLOAD,2023-04-22 19:44:11,15.08850926,0.0001055,53.2148,241.2009,80.7562,279.355,0.00033323,5.021e-05,0.0,0 STARLINK-3851,1 52344U 22045P   23112.82235187  .00005021  00000-0  33323-3 0  9991,2 52344  53.2148 241.2009 0001055  80.7562 279.3550 15.08850926 56983,6917.847,95.437,540.442,538.982,0.0
52344.0,STARLINK-3851,PAYLOAD,2023-04-23 19:34:57,15.08841029,0.0002714,53.216,236.7392,207.6417,152.4431,3.5044e-05,2.69e-06,0.0,0 STARLINK-3851,1 52344U 22045P   23113.81594453  .00000269  00000-0  35044-4 0  9997,2 52344  53.2160 236.7392 0002714 207.6417 152.4431 15.08841029 57134,6917.877,95.437,541.62,537.865,0.0
52344.0,STARLINK-3851,PAYLOAD,2023-04-23 19:34:59,15.08842568,0.000147,53.2146,236.7401,85.8399,274.2761,0.00027174,4.04e-05,0.0,0 STARLINK-3851,1 52344U 22045P   23113.81596091  .00004040  00000-0  27174-3 0  9992,2 52344  53.2146 236.7401 0001470  85.8399 274.2761 15.08842568 57130,6917.873,95.437,540.754,538.721,0.0
52344.0,STARLINK-3851,PAYLOAD,2023-04-24 19:25:43,15.08899345,0.0001289,53.2171,232.2783,108.011,252.1022,0.0013922,0.00021974,0.0,0 STARLINK-3851,1 52344U 22045P   23114.80953126  .00021974  00000-0  13922-2 0  9998,2 52344  53.2171 232.2783 0001289 108.0110 252.1022 15.08899345 57285,6917.699,95.434,540.456,538.672,0.0
52344.0,STARLINK-3851,PAYLOAD,2023-04-25 11:19:36,15.08781176,0.000176,53.2159,229.306,125.3214,234.7943,0.0005042,7.733e-05,0.0,0 STARLINK-3851,1 52344U 22045P   23115.47195506  .00007733  00000-0  50420-3 0  9994,2 52344  53.2159 229.3060 0001760 125.3214 234.7943 15.08781176 57388,6918.06,95.441,541.143,538.708,0.0
52344.0,STARLINK-3851,PAYLOAD,2023-04-26 11:10:25,15.08820634,0.0001182,53.2155,224.8482,124.0783,236.0321,0.00093703,0.00014648,0.0,0 STARLINK-3851,1 52344U 22045P   23116.46557627  .00014648  00000-0  93703-3 0  9994,2 52344  53.2155 224.8482 0001182 124.0783 236.0321 15.08820634 57532,6917.94,95.439,540.622,538.987,0.0
52344.0,STARLINK-3851,PAYLOAD,2023-04-26 15:56:35,15.08832137,0.0001139,53.2157,223.9565,122.8724,237.2378,0.0011233,0.00017631,0.0,0 STARLINK-3851,1 52344U 22045P   23116.66429720  .00017631  00000-0  11233-2 0  9990,2 52344  53.2157 223.9565 0001139 122.8724 237.2378 15.08832137 57568,6917.904,95.438,540.557,538.981,0.0
52344.0,STARLINK-3851,PAYLOAD,2023-04-27 12:36:35,15.08871557,0.0001016,53.2149,220.0912,116.8941,243.2155,0.0013865,0.00021866,0.0,0 STARLINK-3851,1 52344U 22045P   23117.52540863  .00021866  00000-0  13865-2 0  9996,2 52344  53.2149 220.0912 0001016 116.8941 243.2155 15.08871557 57694,6917.784,95.436,540.352,538.946,0.0
52344.0,STARLINK-3851,PAYLOAD,2023-04-27 17:22:44,15.08881517,0.0001003,53.2148,219.199,115.5541,244.5555,0.0014571,0.00023004,0.0,0 STARLINK-3851,1 52344U 22045P   23117.72412345  .00023004  00000-0  14571-2 0  9992,2 52344  53.2148 219.1990 0001003 115.5541 244.5555 15.08881517 57725,6917.753,95.435,540.312,538.925,0.0
52344.0,STARLINK-3851,PAYLOAD,2023-04-28 06:05:49,15.08863247,0.0002416,53.2144,216.8198,84.8424,275.2844,0.00095345,0.00014929,0.0,0 STARLINK-3851,1 52344U 22045P   23118.25404514  .00014929  00000-0  95345-3 0  9995,2 52344  53.2144 216.8198 0002416  84.8424 275.2844 15.08863247 57803,6917.809,95.436,541.346,538.003,0.0
52344.0,STARLINK-3851,PAYLOAD,2023-04-28 12:27:21,15.08846833,9.12e-05,53.2154,215.6325,87.1399,272.9698,0.00076665,0.00011937,0.0,0 STARLINK-3851,1 52344U 22045P   23118.51900324  .00011937  00000-0  76665-3 0  9994,2 52344  53.2154 215.6325 0000912  87.1399 272.9698 15.08846833 57846,6917.86,95.437,540.355,539.094,0.0
52344.0,STARLINK-3851,PAYLOAD,2023-04-28 23:35:03,15.08845014,7.49e-05,53.2146,213.5506,71.235,288.8724,0.00064472,9.989e-05,0.0,0 STARLINK-3851,1 52344U 22045P   23118.98268231  .00009989  00000-0  64472-3 0  9996,2 52344  53.2146 213.5506 0000749  71.2350 288.8724 15.08845014 57918,6917.865,95.437,540.248,539.212,0.0
52344.0,STARLINK-3851,PAYLOAD,2023-04-29 12:18:08,15.08845436,0.0001108,53.2153,211.1712,77.299,282.8126,8.265e-05,1.028e-05,0.0,0 STARLINK-3851,1 52344U 22045P   23119.51260314  .00001028  00000-0  82650-4 0  9995,2 52344  53.2153 211.1712 0001108  77.2990 282.8126 15.08845436 57991,6917.864,95.437,540.495,538.962,0.0
52344.0,STARLINK-3851,PAYLOAD,2023-04-29 15:28:54,15.08851413,0.0001063,53.2157,210.5771,75.912,284.1991,0.00015201,2.133e-05,0.0,0 STARLINK-3851,1 52344U 22045P   23119.64508028  .00002133  00000-0  15201-3 0  9991,2 52344  53.2157 210.5771 0001063  75.9120 284.1991 15.08851413 58014,6917.846,95.437,540.446,538.975,0.0
52344.0,STARLINK-3851,PAYLOAD,2023-04-30 12:08:56,15.08840198,0.000101,53.2151,206.7082,86.1519,273.9589,5.3122e-05,5.58e-06,0.0,0 STARLINK-3851,1 52344U 22045P   23120.50620394  .00000558  00000-0  53122-4 0  9993,2 52344  53.2151 206.7082 0001010  86.1519 273.9589 15.08840198 58149,6917.88,95.438,540.443,539.046,0.0
